OBJECT_NAME,OBJECT_ID,EPOCH,MEAN_MOTION,ECCENTRICITY,INCLINATION,RA_OF_ASC_NODE,ARG_OF_PERICENTER,MEAN_ANOMALY,EPHEMERIS_TYPE,CLASSIFICATION_TYPE,NORAD_CAT_ID,ELEMENT_SET_NO,REV_AT_EPOCH,BSTAR,MEAN_MOTION_DOT,MEAN_MOTION_DDOT
STARLINK-5585,2023-099F,2026-07-02T02:17:21.422112,15.27574124,.00011537,43.0031,326.2731,277.8236,82.2485,0,U,57333,999,16357,.20355905E-4,.298E-5,0
STARLINK-5589,2023-099G,2026-07-02T02:28:26.432544,15.27616649,.0001479,43.0039,326.3259,272.0548,88.0135,0,U,57334,999,16357,-.32061196E-3,-.9084E-4,0
STARLINK-6316,2023-099H,2026-07-02T15:28:19.792992,15.27579608,.00017849,43.0025,320.1100,274.5230,85.5418,0,U,57335,999,16369,.1439991E-4,.134E-5,0
STARLINK-6320,2023-099J,2026-07-02T02:45:48.857184,15.27570279,.00018002,43.0087,322.9904,276.3614,83.7033,0,U,57336,999,16361,.97018165E-4,.2407E-4,0
STARLINK-6322,2023-099K,2026-07-02T02:39:33.871680,15.27577127,.00011318,43.0025,326.3860,277.4437,82.6286,0,U,57337,999,16357,.3948683E-4,.825E-5,0
STARLINK-6374,2023-099L,2026-07-02T02:43:15.698496,15.27577570,.00008528,43.0027,326.4041,284.8624,75.2134,0,U,57338,999,16357,.22999137E-4,.371E-5,0
STARLINK-6332,2023-099M,2026-07-02T02:34:00.093792,15.27573619,.00010292,43.0027,326.3561,281.6930,78.3806,0,U,57339,999,16357,-.1191711E-5,-.295E-5,0
STARLINK-6321,2023-099N,2026-07-02T03:05:27.430080,15.27588890,.00023175,43.0051,326.5127,285.5755,74.4840,0,U,57340,999,16357,.7133064E-4,.1701E-4,0
STARLINK-6377,2023-099P,2026-07-02T11:39:44.606016,15.27573477,.00014324,43.0010,327.4536,256.5595,103.5097,0,U,57341,999,16359,.7332827E-5,-.6E-6,0
STARLINK-6375,2023-099Q,2026-07-02T02:31:00.993504,15.27578849,.00010739,43.0024,322.9355,277.3008,82.7721,0,U,57342,999,16361,.45724315E-4,.996E-5,0
STARLINK-6379,2023-099R,2026-07-02T02:54:21.869280,15.27584620,.00017851,43.0061,326.4590,269.0703,90.9944,0,U,57343,999,16357,-.4841607E-5,-.396E-5,0
STARLINK-6380,2023-099S,2026-07-02T11:16:23.803680,15.27584688,.00015014,43.0027,323.9110,274.8473,85.2207,0,U,57344,999,16363,.64821189E-4,.1522E-4,0
STARLINK-6373,2023-099T,2026-07-02T11:36:02.113920,15.27576844,.0001273,43.0017,327.4288,245.6737,114.3982,0,U,57345,999,16359,.11907084E-4,.66E-6,0
STARLINK-6359,2023-099U,2026-07-02T15:30:10.489536,15.27585987,.00015408,43.0012,320.1133,288.8514,71.2170,0,U,57346,999,16369,-.13765088E-4,-.641E-5,0
STARLINK-6378,2023-099V,2026-07-02T02:20:20.849856,15.27576322,.00012244,43.0026,329.6953,276.2915,83.7797,0,U,57347,999,16353,.15712097E-4,.17E-5,0
STARLINK-6372,2023-099W,2026-07-02T02:40:16.028832,15.27573433,.000179,43.0067,322.9761,266.8188,93.2459,0,U,57348,999,16361,.88208483E-4,.2165E-4,0
STARLINK-6376,2023-099X,2026-07-02T02:06:57.884544,15.27591561,.00010779,43.0031,322.8054,286.0145,74.0588,0,U,57349,999,16433,.96548258E-4,.2397E-4,0
STARLINK-6362,2023-099Y,2026-07-02T02:12:02.761632,15.27564049,.00019132,43.0059,315.7733,273.3553,86.7080,0,U,57350,999,16368,.26732303E-3,.7097E-4,0
STARLINK-6331,2023-099Z,2026-07-02T01:44:45.384000,15.27579637,.00012259,43.0011,322.6904,269.6906,90.3805,0,U,57351,999,16361,.29014155E-4,.536E-5,0
STARLINK-6297,2023-099AA,2026-07-02T02:02:46.089024,15.27579036,.00015865,43.0038,315.7253,280.9829,79.0844,0,U,57352,999,16369,.34133905E-4,.677E-5,0
STARLINK-6324,2023-099AB,2026-07-02T02:16:12.585504,15.27579458,.00012667,43.0035,322.8522,267.0119,93.0587,0,U,57353,999,16361,.15110834E-4,.154E-5,0
STARLINK-6293,2023-099AC,2026-07-02T01:59:03.989184,15.27581013,.00016636,43.0041,315.7002,277.9968,82.0695,0,U,57354,999,16369,.1495912E-5,-.221E-5,0
STARLINK-6276,2023-099AD,2026-07-02T15:05:37.940640,15.27581680,.00010736,42.9998,312.9239,286.7475,73.3259,0,U,57355,999,16377,.26303717E-4,.462E-5,0
STARLINK-6355,2023-099AE,2026-07-02T02:19:25.394880,15.27577826,.00022056,43.0061,315.8047,272.2489,87.8110,0,U,57356,999,16369,.67269893E-4,.1589E-4,0
STARLINK-5600,2023-099AF,2026-07-02T15:44:16.759392,15.27577745,.00007506,43.0017,312.2640,272.7557,87.3208,0,U,57357,999,16378,.7830702E-5,-.46E-6,0
STARLINK-6299,2023-099AG,2026-07-02T15:14:40.297632,15.27578646,.00014179,43.0035,312.1176,265.4888,94.5802,0,U,57358,999,16452,.1782292E-4,.228E-5,0
STARLINK-6347,2023-099AH,2026-07-02T02:06:28.170720,15.27580185,.00016177,43.0056,315.7421,294.8606,65.2077,0,U,57359,999,16369,.44388382E-4,.959E-5,0
STARLINK-6348,2023-099AJ,2026-07-02T15:25:46.701696,15.27577471,.00007706,43.0037,312.1689,273.6480,86.4283,0,U,57360,999,16378,-.10090149E-4,-.54E-5,0
STARLINK-6340,2023-099AK,2026-07-02T15:03:46.415520,15.27583062,.00017614,43.0042,312.9047,276.2101,83.8550,0,U,57361,999,16377,.14850203E-4,.146E-5,0
STARLINK-6343,2023-099AL,2026-07-02T15:31:19.826400,15.27571510,.00010191,43.0037,312.1932,277.4440,82.6296,0,U,57362,999,16377,-.16074196E-4,-.704E-5,0
